NORAD_CAT_ID,OBJECT_NAME,OBJECT_TYPE,EPOCH,MEAN_MOTION,ECCENTRICITY,INCLINATION,RA_OF_ASC_NODE,ARG_OF_PERICENTER,MEAN_ANOMALY,BSTAR,MEAN_MOTION_DOT,MEAN_MOTION_DDOT,TLE_LINE0,TLE_LINE1,TLE_LINE2,SEMIMAJOR_AXIS,PERIOD,APOGEE,PERIGEE,DECAYED
56452.0,STARLINK-5986,PAYLOAD,2023-12-23 12:04:04,14.98328215,0.0002483,70.0006,19.8127,253.8263,106.2623,9.5979e-05,1.052e-05,0.0,0 STARLINK-5986,1 56452U 23064E   23357.50283006  .00001052  00000-0  95979-4 0  9992,2 56452  70.0006  19.8127 0002483 253.8263 106.2623 14.98328215 34337,6950.198,96.107,573.789,570.338,0.0
56452.0,STARLINK-5986,PAYLOAD,2023-12-24 04:05:25,14.9833442,0.0002471,70.0005,18.1284,259.259,100.8291,-5.6043e-05,-7.62e-06,0.0,0 STARLINK-5986,1 56452U 23064E   23358.17042912 -.00000762  00000-0 -56043-4 0  9993,2 56452  70.0005  18.1284 0002471 259.2590 100.8291 14.98334420 34798,6950.179,96.107,573.762,570.327,0.0
56452.0,STARLINK-5986,PAYLOAD,2023-12-24 12:06:05,14.98336415,0.0002529,70.0005,17.2858,272.3084,87.7785,-1.7677e-05,-3.04e-06,0.0,0 STARLINK-5986,1 56452U 23064E   23358.50422685 -.00000304  00000-0 -17677-4 0  9991,2 56452  70.0005  17.2858 0002529 272.3084  87.7785 14.98336415 34486,6950.173,96.107,573.796,570.28,0.0
56452.0,STARLINK-5986,PAYLOAD,2023-12-25 04:07:25,14.98331123,0.0002825,69.9998,15.6012,264.7972,95.2865,-1.0685e-05,-2.2e-06,0.0,0 STARLINK-5986,1 56452U 23064E   23359.17182591 -.00000220  00000-0 -10685-4 0  9993,2 56452  69.9998  15.6012 0002825 264.7972  95.2865 14.98331123 34943,6950.189,96.107,574.018,570.091,0.0
56452.0,STARLINK-5986,PAYLOAD,2023-12-25 10:31:59,14.9831739,0.0002197,70.0004,14.9293,268.5494,91.5413,-0.00014838,-1.862e-05,0.0,0 STARLINK-5986,1 56452U 23064E   23359.43887855 -.00001862  00000-0 -14838-3 0  9993,2 56452  70.0004  14.9293 0002197 268.5494  91.5413 14.98317390 34982,6950.232,96.108,573.624,570.57,0.0
56452.0,STARLINK-5986,PAYLOAD,2023-12-26 04:09:29,14.98301069,0.000278,70.0001,13.0787,266.6479,93.4362,-0.00029241,-3.577e-05,0.0,0 STARLINK-5986,1 56452U 23064E   23360.17325295 -.00003577  00000-0 -29241-3 0  9990,2 56452  70.0001  13.0787 0002780 266.6479  93.4362 14.98301069 35090,6950.282,96.109,574.08,570.215,0.0
56452.0,STARLINK-5986,PAYLOAD,2023-12-26 10:34:01,14.98299953,0.0002457,70.0007,12.4047,274.3693,85.7186,-0.00022427,-2.766e-05,0.0,0 STARLINK-5986,1 56452U 23064E   23360.44029802 -.00002766  00000-0 -22427-3 0  9993,2 56452  70.0007  12.4047 0002457 274.3693  85.7186 14.98299953 34773,6950.286,96.109,573.858,570.443,0.0
56452.0,STARLINK-5986,PAYLOAD,2023-12-27 04:11:28,14.98327204,0.0002409,70.0023,10.5582,245.0189,115.072,7.8704e-05,8.46e-06,0.0,0 STARLINK-5986,1 56452U 23064E   23361.17463664  .00000846  00000-0  78704-4 0  9997,2 56452  70.0023  10.5582 0002409 245.0189 115.0720 14.98327204 35241,6950.202,96.107,573.741,570.392,0.0
56452.0,STARLINK-5986,PAYLOAD,2023-12-27 10:35:57,14.98369216,0.0002168,70.0021,9.8817,281.8448,78.2467,0.00050593,5.955e-05,0.0,0 STARLINK-5986,1 56452U 23064E   23361.44164029  .00005955  00000-0  50593-3 0  9991,2 56452  70.0021   9.8817 0002168 281.8448  78.2467 14.98369216 35280,6950.072,96.104,573.443,570.43,0.0
56452.0,STARLINK-5986,PAYLOAD,2023-12-28 04:13:27,14.98334179,0.0003255,69.9996,8.0303,278.5604,81.5186,0.00043072,5.051e-05,0.0,0 STARLINK-5986,1 56452U 23064E   23362.17601264  .00005051  00000-0  43072-3 0  9990,2 56452  69.9996   8.0303 0003255 278.5604  81.5186 14.98334179 35391,6950.18,96.107,574.307,569.783,0.0
56452.0,STARLINK-5986,PAYLOAD,2023-12-28 10:37:59,14.98333994,0.0002822,69.9998,7.3552,268.4865,91.5971,0.00037746,4.414e-05,0.0,0 STARLINK-5986,1 56452U 23064E   23362.44305281  .00004414  00000-0  37746-3 0  9993,2 56452  69.9998   7.3552 0002822 268.4865  91.5971 14.98333994 35079,6950.181,96.107,574.007,570.084,0.0
56452.0,STARLINK-5986,PAYLOAD,2023-12-29 04:15:30,14.98327342,0.0003224,69.9988,5.5032,266.5881,93.491,-0.00016359,-2.044e-05,0.0,0 STARLINK-5986,1 56452U 23064E   23363.17743073 -.00002044  00000-0 -16359-3 0  9995,2 56452  69.9988   5.5032 0003224 266.5881  93.4910 14.98327342 35541,6950.201,96.107,574.307,569.825,0.0
56452.0,STARLINK-5986,PAYLOAD,2023-12-29 10:40:02,14.98321587,0.0002792,69.9998,4.8292,266.6461,93.4379,-0.0001934,-2.399e-05,0.0,0 STARLINK-5986,1 56452U 23064E   23363.44447587 -.00002399  00000-0 -19340-3 0  9992,2 56452  69.9998   4.8292 0002792 266.6461  93.4379 14.98321587 35225,6950.219,96.108,574.024,570.143,0.0
56452.0,STARLINK-5986,PAYLOAD,2023-12-30 04:17:29,14.98336855,0.0002533,70.0003,2.9784,247.2948,112.7943,-0.00011107,-1.418e-05,0.0,0 STARLINK-5986,1 56452U 23064E   23364.17881593 -.00001418  00000-0 -11107-3 0  9996,2 56452  70.0003   2.9784 0002533 247.2948 112.7943 14.98336855 35695,6950.172,96.107,573.797,570.276,0.0
56452.0,STARLINK-5986,PAYLOAD,2023-12-30 10:42:02,14.98327753,0.0002701,70.0004,2.3047,267.9348,92.1502,-0.0001787,-2.224e-05,0.0,0 STARLINK-5986,1 56452U 23064E   23364.44586484 -.00002224  00000-0 -17870-3 0  9996,2 56452  70.0004   2.3047 0002701 267.9348  92.1502 14.98327753 35376,6950.2,96.107,573.942,570.188,0.0
56452.0,STARLINK-5986,PAYLOAD,2023-12-31 09:07:55,14.98319119,0.0002729,70.0004,359.9494,264.3087,95.7761,0.00012448,1.392e-05,0.0,0 STARLINK-5986,1 56452U 23064E   23365.38050538  .00001392  00000-0  12448-3 0  9995,2 56452  70.0004 359.9494 0002729 264.3087  95.7761 14.98319119 35513,6950.227,96.108,573.988,570.195,0.0
56452.0,STARLINK-5986,PAYLOAD,2024-01-01 02:45:23,14.98358911,0.0003022,70.0,358.0967,267.7836,92.2977,-0.00050006,-6.059e-05,0.0,0 STARLINK-5986,1 56452U 23064E   24001.11485968 -.00006059  00000-0 -50006-3 0  9992,2 56452  70.0000 358.0967 0003022 267.7836  92.2977 14.98358911 35985,6950.103,96.105,574.069,569.868,0.0
56452.0,STARLINK-5986,PAYLOAD,2024-01-01 09:09:55,14.98359743,0.0003021,70.0001,357.4235,267.696,92.3853,-0.00049289,-5.974e-05,0.0,0 STARLINK-5986,1 56452U 23064E   24001.38189481 -.00005974  00000-0 -49289-3 0  9998,2 56452  70.0001 357.4235 0003021 267.6960  92.3853 14.98359743 35666,6950.101,96.105,574.066,569.866,0.0
56452.0,STARLINK-5986,PAYLOAD,2024-01-02 04:23:33,14.9832839,0.0002917,70.0003,355.4036,263.0736,97.0091,1.8875e-05,1.32e-06,0.0,0 STARLINK-5986,1 56452U 23064E   24002.18302261  .00000132  00000-0  18875-4 0  9997,2 56452  70.0003 355.4036 0002917 263.0736  97.0091 14.98328390 36143,6950.198,96.107,574.09,570.035,0.0
56452.0,STARLINK-5986,PAYLOAD,2024-01-02 09:11:57,14.98330409,0.0002964,70.0002,354.898,266.5994,93.4826,3.9842e-05,3.82e-06,0.0,0 STARLINK-5986,1 56452U 23064E   24002.38330091  .00000382  00000-0  39842-4 0  9995,2 56452  70.0002 354.8980 0002964 266.5994  93.4826 14.98330409 35812,6950.192,96.107,574.117,569.997,0.0
56452.0,STARLINK-5986,PAYLOAD,2024-01-03 09:13:58,14.98331413,0.0002864,70.0004,352.3729,266.3938,93.6894,2.8781e-05,2.5e-06,0.0,0 STARLINK-5986,1 56452U 23064E   24003.38470024  .00000250  00000-0  28781-4 0  9991,2 56452  70.0004 352.3729 0002864 266.3938  93.6894 14.98331413 36323,6950.189,96.107,574.044,570.063,0.0
56452.0,STARLINK-5986,PAYLOAD,2024-01-04 09:15:58,14.98355558,0.0002702,70.0003,349.8483,265.4199,94.6651,-0.00045435,-5.513e-05,0.0,0 STARLINK-5986,1 56452U 23064E   24004.38609640 -.00005513  00000-0 -45435-3 0  9993,2 56452  70.0003 349.8483 0002702 265.4199  94.6651 14.98355558 36474,6950.114,96.105,573.857,570.101,0.0
56452.0,STARLINK-5986,PAYLOAD,2024-01-04 22:05:03,14.98330443,0.0002983,69.9999,348.5012,275.2097,84.8721,-1.4659e-05,-2.68e-06,0.0,0 STARLINK-5986,1 56452U 23064E   24004.92018248 -.00000268  00000-0 -14659-4 0  9998,2 56452  69.9999 348.5012 0002983 275.2097  84.8721 14.98330443 36190,6950.192,96.107,574.13,569.983,0.0
56452.0,STARLINK-5986,PAYLOAD,2024-01-05 04:29:36,14.98328843,0.0002687,70.0007,347.8287,266.4064,93.6788,-1.4198e-05,-2.62e-06,0.0,0 STARLINK-5986,1 56452U 23064E   24005.18722280 -.00000262  00000-0 -14198-4 0  9997,2 56452  70.0007 347.8287 0002687 266.4064  93.6788 14.98328843 36592,6950.196,96.107,573.929,570.194,0.0
56452.0,STARLINK-5986,PAYLOAD,2024-01-05 09:17:59,14.98332012,0.0002689,70.0004,347.3234,267.3384,92.7467,1.5987e-05,9.8e-07,0.0,0 STARLINK-5986,1 56452U 23064E   24005.38749979  .00000098  00000-0  15987-4 0  9995,2 56452  70.0004 347.3234 0002689 267.3384  92.7467 14.98332012 36264,6950.187,96.107,573.921,570.183,0.0
56452.0,STARLINK-5986,PAYLOAD,2024-01-06 04:31:36,14.9832803,0.0002648,70.0006,345.3034,264.6021,95.4835,1.3859e-05,7.2e-07,0.0,0 STARLINK-5986,1 56452U 23064E   24006.18862160  .00000072  00000-0  13859-4 0  9990,2 56452  70.0006 345.3034 0002648 264.6021  95.4835 14.98328030 36742,6950.199,96.107,573.904,570.224,0.0
56452.0,STARLINK-5986,PAYLOAD,2024-01-06 09:20:01,14.98326725,0.0002706,70.0005,344.7983,267.0433,93.0416,-3.9931e-06,-1.41e-06,0.0,0 STARLINK-5986,1 56452U 23064E   24006.38890333 -.00000141  00000-0 -39931-5 0  9994,2 56452  70.0005 344.7983 0002706 267.0433  93.0416 14.98326725 36418,6950.203,96.107,573.949,570.187,0.0
56452.0,STARLINK-5986,PAYLOAD,2024-01-07 07:45:53,14.98334643,0.0002738,70.0002,342.4411,271.4378,88.6468,-7.2384e-05,-9.57e-06,0.0,0 STARLINK-5986,1 56452U 23064E   24007.32354007 -.00000957  00000-0 -72384-4 0  9995,2 56452  70.0002 342.4411 0002738 271.4378  88.6468 14.98334643 36918,6950.179,96.107,573.946,570.141,0.0
56452.0,STARLINK-5986,PAYLOAD,2024-01-07 22:11:06,14.98328207,0.0002812,70.0003,340.926,273.9182,86.1655,1.8299e-05,1.25e-06,0.0,0 STARLINK-5986,1 56452U 23064E   24007.92438165  .00000125  00000-0  18299-4 0  9999,2 56452  70.0003 340.9260 0002812 273.9182  86.1655 14.98328207 36647,6950.198,96.107,574.018,570.109,0.0
56452.0,STARLINK-5986,PAYLOAD,2024-01-08 07:47:54,14.98331745,0.0002827,70.0003,339.9163,269.9947,90.0888,4.7256e-05,4.71e-06,0.0,0 STARLINK-5986,1 56452U 23064E   24008.32493828  .00000471  00000-0  47256-4 0  9990,2 56452  70.0003 339.9163 0002827 269.9947  90.0888 14.98331745 37067,6950.187,96.107,574.017,570.088,0.0
